0 ORBCOMM FM 8
1 25112U 97084A   13281.46996455  .00000734  00000-0  29809-3 0  5139
2 25112 045.0155 132.3831 0009212 037.8488 033.5592 14.36099556826377
0 ORBCOMM FM 8
1 25112U 97084A   13282.79898381  .00000716  00000-0  29174-3 0  5141
2 25112 045.0156 126.1026 0009148 045.2678 063.7685 14.36105174826560
0 ORBCOMM FM 8
1 25112U 97084A   13283.98439679  .00000914  00000-0  35928-3 0  5159
2 25112 045.0157 120.5008 0009112 051.7541 071.7700 14.36107276826732
0 ORBCOMM FM 8
1 25112U 97084A   13286.40990648  .00000864  00000-0  34210-3 0  5176
2 25112 045.0160 109.0386 0009030 065.3335 010.1949 14.36111204827085
0 ORBCOMM FM 8
1 25112U 97084A   13287.45609954  .00001035  00000-0  40030-3 0  5188
2 25112 045.0161 104.0946 0009027 071.0809 018.5040 14.36113806827230
0 ORBCOMM FM 8
1 25112U 97084A   13288.57308789  .00001291  00000-0  48744-3 0  5199
2 25112 045.0164 098.8160 0009019 077.3392 032.6805 14.36117630827390
0 ORBCOMM FM 8
1 25112U 97084A   13289.61898301  .00001166  00000-0  44481-3 0  5206
2 25112 045.0166 093.8735 0009037 083.0138 039.5391 14.36121725827540
0 ORBCOMM FM 8
1 25112U 97084A   13291.48178025  .00001126  00000-0  43129-3 0  5213
2 25112 045.0170 085.0706 0009083 093.1638 309.4491 14.36126186827810
0 ORBCOMM FM 8
1 25112U 97084A   13292.74336956  .00001265  00000-0  47849-3 0  5220
2 25112 045.0172 079.1090 0009044 100.5136 350.9037 14.36129044827997
0 ORBCOMM FM 8
1 25112U 97084A   13293.79887216  .00001488  00000-0  55402-3 0  5238
2 25112 045.0172 074.1212 0009037 106.5182 047.2033 14.36131446828146
0 ORBCOMM FM 8
1 25112U 97084A   13294.91157259  .00001568  00000-0  58135-3 0  5246
2 25112 045.0172 068.8629 0009093 112.6643 039.3718 14.36135122828305
